From: horizons@ssd.jpl.nasa.gov (Horizons Ephemeris System)
Subject: [Horizons] SMALL BODY #C(500@10)_T(306P/LINEAR) (1/1)
Date: March 1, 2021 at 1:23:07 PM PST

Automated mail xmit by MAIL_REQUEST, PID= 2301 Mon Mar  1 13:23:07 2021
++++++++++++++++++++++++++++++++ (part 1 of 1)  +++++++++++++++++++++++++++++++
*******************************************************************************
JPL/HORIZONS                     306P/LINEAR               2021-Mar-01 13:23:07
Rec #:90001219 (+COV) Soln.date: 2015-Jan-08_00:00:29    # obs: 343 (2003-2014)

IAU76/J2000 helio. ecliptic osc. elements (au, days, deg., period=Julian yrs):

 EPOCH=  2453391.5 ! 2005-Jan-21.0000000 (TDB)    RMSW= n.a.
  EC= .5982594906974988   QR= 1.246918534416035   TP= 2452865.4688968677
  OM= 341.4986017466438   W= .7688016312200395    IN= 8.364457776766727
  A= 3.103790893731194    MA= 94.81494901085367   ADIST= 4.960663253046352
  PER= 5.4682315494829    N= .180245894           ANGMOM= .024284218
  DAN= 1.24696            DDN= 4.96               L= 342.2592264
  B= .1118338             MOID= .239208           TP= 2003-Aug-13.9688968677

Comet physical (GM= km^3/s^2; RAD= km):
  GM= n.a.                RAD= n.a.
  M1=  17.7     M2=  21.1     k1=  16.    k2=  5.      PHCOF=  .030

COMET comments 
1: soln ref.= JPL#31, data arc: 2003-07-30 to 2014-12-15
2: k1=16., k2=5., phase coef.=0.03;
*******************************************************************************


*******************************************************************************
Ephemeris / MAIL_REQUEST Mon Mar  1 13:23:07 2021 Pasadena, USA  / Horizons
*******************************************************************************
Target body name: 306P/LINEAR                     {source: JPL#31}
Center body name: Sun (10)                        {source: DE431}
Center-site name: BODY CENTER
*******************************************************************************
Start time      : A.D. 1990-Jan-01 00:00:00.0000 TDB
Stop  time      : A.D. 2020-Dec-31 00:00:00.0000 TDB
Step-size       : 10080 minutes
*******************************************************************************
Center geodetic : 0.00000000,0.00000000,0.0000000 {E-lon(deg),Lat(deg),Alt(km)}
Center cylindric: 0.00000000,0.00000000,0.0000000 {E-lon(deg),Dxy(km),Dz(km)}
Center radii    : 696000.0 x 696000.0 x 696000.0 k{Equator, meridian, pole}    
Small perturbers: Yes                             {source: SB431-N16}
Output units    : AU-D
Output type     : GEOMETRIC cartesian states
Output format   : 6 (LT, range, and range-rate)
Reference frame : Ecliptic of J2000.0
*******************************************************************************
Initial IAU76/J2000 heliocentric ecliptic osculating elements (au, days, deg.):
 EPOCH=  2453391.5 ! 2005-Jan-21.0000000 (TDB)    RMSW= n.a.                  
  EC= .5982594906974988   QR= 1.246918534416035   TP= 2452865.4688968677      
  OM= 341.4986017466438   W= .7688016312200395    IN= 8.364457776766727       
 Equivalent ICRF heliocentric equatorial cartesian coordinates (au, au/d):
  X=-2.771694336046170E+00  Y= 2.674526398003263E+00  Z= 1.481049553367795E+00
 VX=-6.814310299473186E-03 VY=-8.968216779355570E-04 VZ=-9.157630101630501E-04
Comet physical (GM= km^3/s^2; RAD= km):                                        
  GM= n.a.                RAD= n.a.                                           
  M1=  17.7     M2=  21.1     k1=  16.    k2=  5.      PHCOF=  .030           
*******************************************************************************
           JDTDB,            Calendar Date (TDB),                     LT,                     RG,                     RR,
**************************************************************************************************************************
$$SOE
2448592.500000000, A.D. 1991-Dec-02 00:00:00.0000,  1.705173454422985E-02,  2.952416314119333E+00, -6.124218671192318E-03,
2448599.500000000, A.D. 1991-Dec-09 00:00:00.0000,  1.680257497288840E-02,  2.909275671662146E+00, -6.201657567287433E-03,
2448606.500000000, A.D. 1991-Dec-16 00:00:00.0000,  1.655028806255564E-02,  2.865593547244061E+00, -6.278907612189943E-03,
2448613.500000000, A.D. 1991-Dec-23 00:00:00.0000,  1.629488404308954E-02,  2.821371712110079E+00, -6.355836737945854E-03,
2448620.500000000, A.D. 1991-Dec-30 00:00:00.0000,  1.603637894227676E-02,  2.776612941385433E+00, -6.432290003967086E-03,
2448627.500000000, A.D. 1992-Jan-06 00:00:00.0000,  1.577479553607842E-02,  2.731321178605545E+00, -6.508088107471542E-03,
2448634.500000000, A.D. 1992-Jan-13 00:00:00.0000,  1.551016439864789E-02,  2.685501717520970E+00, -6.583023852393803E-03,
2448641.500000000, A.D. 1992-Jan-20 00:00:00.0000,  1.524252512276027E-02,  2.639161413408206E+00, -6.656857449370833E-03,
2448648.500000000, A.D. 1992-Jan-27 00:00:00.0000,  1.497192774300161E-02,  2.592308929487283E+00, -6.729311186808996E-03,
2448655.500000000, A.D. 1992-Feb-03 00:00:00.0000,  1.469843438923642E-02,  2.544955023210763E+00, -6.800063332218736E-03,
2448662.500000000, A.D. 1992-Feb-10 00:00:00.0000,  1.442212120577313E-02,  2.497112878556961E+00, -6.868741052547591E-03,
2448669.500000000, A.D. 1992-Feb-17 00:00:00.0000,  1.414308058000595E-02,  2.448798491907313E+00, -6.934912151234473E-03,
2448676.500000000, A.D. 1992-Feb-24 00:00:00.0000,  1.386142373184666E-02,  2.400031120392588E+00, -6.998075471668710E-03,
2448683.500000000, A.D. 1992-Mar-02 00:00:00.0000,  1.357728371618485E-02,  2.350833801752770E+00, -7.057650135366226E-03,
2448690.500000000, A.D. 1992-Mar-09 00:00:00.0000,  1.329081887810252E-02,  2.301233952588920E+00, -7.112963794413849E-03,
2448697.500000000, A.D. 1992-Mar-16 00:00:00.0000,  1.300221684463892E-02,  2.251264059515827E+00, -7.163237112626667E-03,
2448704.500000000, A.D. 1992-Mar-23 00:00:00.0000,  1.271169924864401E-02,  2.200962497071885E+00, -7.207563829208772E-03,
2448711.500000000, A.D. 1992-Mar-30 00:00:00.0000,  1.241952725309342E-02,  2.150374484224578E+00, -7.244891403726907E-03,
2448718.500000000, A.D. 1992-Apr-06 00:00:00.0000,  1.212600788657513E-02,  2.099553181325991E+00, -7.273999430123137E-03,
2448725.500000000, A.D. 1992-Apr-13 00:00:00.0000,  1.183150134007991E-02,  2.048560953512918E+00, -7.293473759605303E-03,
2448732.500000000, A.D. 1992-Apr-20 00:00:00.0000,  1.153642938050599E-02,  1.997470827460024E+00, -7.301677267757507E-03,
2448739.500000000, A.D. 1992-Apr-27 00:00:00.0000,  1.124128500459409E-02,  1.946368162906890E+00, -7.296717787626735E-03,
2448746.500000000, A.D. 1992-May-04 00:00:00.0000,  1.094664343817596E-02,  1.895352557118860E+00, -7.276413751092255E-03,
2448753.500000000, A.D. 1992-May-11 00:00:00.0000,  1.065317455350346E-02,  1.844539994880921E+00, -7.238258643062360E-03,
2448760.500000000, A.D. 1992-May-18 00:00:00.0000,  1.036165671588979E-02,  1.794065245969313E+00, -7.179386267720410E-03,
2448767.500000000, A.D. 1992-May-25 00:00:00.0000,  1.007299196438483E-02,  1.744084493603987E+00, -7.096540208166875E-03,
2448774.500000000, A.D. 1992-Jun-01 00:00:00.0000,  9.788222251344972E-03,  1.694778146242951E+00, -6.986053181541078E-03,
2448781.500000000, A.D. 1992-Jun-08 00:00:00.0000,  9.508546183659422E-03,  1.646353736235760E+00, -6.843844164789281E-03,
2448788.500000000, A.D. 1992-Jun-15 00:00:00.0000,  9.235335401446091E-03,  1.599048755706791E+00, -6.665440583948134E-03,
2448795.500000000, A.D. 1992-Jun-22 00:00:00.0000,  8.970149325820598E-03,  1.553133210052292E+00, -6.446040402881485E-03,
2448802.500000000, A.D. 1992-Jun-29 00:00:00.0000,  8.714746220422238E-03,  1.508911533184233E+00, -6.180635489205059E-03,
2448809.500000000, A.D. 1992-Jul-06 00:00:00.0000,  8.471087743944311E-03,  1.466723375776497E+00, -5.864213082697692E-03,
2448816.500000000, A.D. 1992-Jul-13 00:00:00.0000,  8.241333472527609E-03,  1.426942656846715E+00, -5.492053527945216E-03,
2448823.500000000, A.D. 1992-Jul-20 00:00:00.0000,  8.027821186373570E-03,  1.389974150489136E+00, -5.060138189070232E-03,
2448830.500000000, A.D. 1992-Jul-27 00:00:00.0000,  7.833028413568652E-03,  1.356246827394232E+00, -4.565666877713255E-03,
2448837.500000000, A.D. 1992-Aug-03 00:00:00.0000,  7.659511220612209E-03,  1.326203256757123E+00, -4.007659072941760E-03,
2448844.500000000, A.D. 1992-Aug-10 00:00:00.0000,  7.509817962636492E-03,  1.300284672591108E+00, -3.387577945715130E-03,
2448851.500000000, A.D. 1992-Aug-17 00:00:00.0000,  7.386378979869269E-03,  1.278911875262195E+00, -2.709876310674916E-03,
2448858.500000000, A.D. 1992-Aug-24 00:00:00.0000,  7.291377998458798E-03,  1.262462965232186E+00, -1.982332274587641E-03,
2448865.500000000, A.D. 1992-Aug-31 00:00:00.0000,  7.226616530728116E-03,  1.251249864690513E+00, -1.216039380095892E-03,
2448872.500000000, A.D. 1992-Sep-07 00:00:00.0000,  7.193387355523316E-03,  1.245496411355609E+00, -4.249574694689064E-04,
2448879.500000000, A.D. 1992-Sep-14 00:00:00.0000,  7.192375382474266E-03,  1.245321193653756E+00,  3.749854081210183E-04,
2448886.500000000, A.D. 1992-Sep-21 00:00:00.0000,  7.223602292990659E-03,  1.250727965604668E+00,  1.167132374781478E-03,
2448893.500000000, A.D. 1992-Sep-28 00:00:00.0000,  7.286424746029635E-03,  1.261605336159797E+00,  1.935467843543390E-03,
2448900.500000000, A.D. 1992-Oct-05 00:00:00.0000,  7.379586441123468E-03,  1.277735783636128E+00,  2.665871265353828E-03,
2448907.500000000, A.D. 1992-Oct-12 00:00:00.0000,  7.501314814431601E-03,  1.298812398118597E+00,  3.347042675921034E-03,
2448914.500000000, A.D. 1992-Oct-19 00:00:00.0000,  7.649446365379320E-03,  1.324460581094905E+00,  3.970983930823215E-03,
2448921.500000000, A.D. 1992-Oct-26 00:00:00.0000,  7.821562268004048E-03,  1.354261525832259E+00,  4.533035019973597E-03,
2448928.500000000, A.D. 1992-Nov-02 00:00:00.0000,  8.015117878811571E-03,  1.387774640967566E+00,  5.031556163817948E-03,
2448935.500000000, A.D. 1992-Nov-09 00:00:00.0000,  8.227554482376668E-03,  1.424556898658408E+00,  5.467390585906916E-03,
